[{"OBJECT_NAME":"ARVAKER-2","OBJECT_ID":"2025-135AR","EPOCH":"2026-03-09T22:22:52.921344","MEAN_MOTION":14.93083026,"ECCENTRICITY":1.249e-5,"INCLINATION":97.761,"RA_OF_ASC_NODE":184.2957,"ARG_OF_PERICENTER":109.4722,"MEAN_ANOMALY":250.6511,"EPHEMERIS_TYPE":0,"CLASSIFICATION_TYPE":"U","NORAD_CAT_ID":64567,"ELEMENT_SET_NO":999,"REV_AT_EPOCH":3906,"BSTAR":0.00042135986,"MEAN_MOTION_DOT":4.333e-5,"MEAN_MOTION_DDOT":0},{"OBJECT_NAME":"NOAA 16 DEB","OBJECT_ID":"2000-055TB","EPOCH":"2026-03-07T11:57:37.788192","MEAN_MOTION":14.89072525,"ECCENTRICITY":0.00117174,"INCLINATION":98.9653,"RA_OF_ASC_NODE":261.806,"ARG_OF_PERICENTER":273.1249,"MEAN_ANOMALY":86.8623,"EPHEMERIS_TYPE":0,"CLASSIFICATION_TYPE":"U","NORAD_CAT_ID":42407,"ELEMENT_SET_NO":999,"REV_AT_EPOCH":51543,"BSTAR":0.010983059,"MEAN_MOTION_DOT":0.00105118,"MEAN_MOTION_DDOT":0}]
